start=new Date('2021-09-26T00:00:00.000Z').valueOf();
sats=[{"MEAN_MOTION_DDOT":"0.0000000000000","GP_ID":"185505204","MEAN_MOTION_DOT":"0.00005037","ELEMENT_SET_NO":"999","CENTER_NAME":"EARTH","INCLINATION":"52.9931","SITE":"AFETR","TIME_SYSTEM":"UTC","LAUNCH_DATE":"2020-03-18","CLASSIFICATION_TYPE":"U","EPOCH":"2021-09-25T15:59:46.078656","FILE":"3128274","APOAPSIS":"543.902","REV_AT_EPOCH":"8466","PERIOD":"95.515","RA_OF_ASC_NODE":"243.3674","MEAN_ANOMALY":"4.5735","OBJECT_ID":"2020-019AJ","OBJECT_TYPE":"PAYLOAD","COUNTRY_CODE":"US","EPHEMERIS_TYPE":"0","TLE_LINE1":"1 45392U 20019AJ  21268.66650554  .00005037  00000-0  34543-3 0  9998","PERIAPSIS":"543.073","ECCENTRICITY":"0.00005990","OBJECT_NAME":"STARLINK-1290","TLE_LINE2":"2 45392  52.9931 243.3674 0000599 355.5248   4.5735 15.07616542 84663","RCS_SIZE":"LARGE","DECAY_DATE":null,"MEAN_MOTION":"15.07616542","ARG_OF_PERICENTER":"355.5248","REF_FRAME":"TEME","MEAN_ELEMENT_THEORY":"SGP4","BSTAR":"0.00034543000000","SEMIMAJOR_AXIS":"6921.623","NORAD_CAT_ID":"45392"},{"APOAPSIS":"548.069","EPOCH":"2021-09-25T15:13:28.147584","FILE":"3128274","CLASSIFICATION_TYPE":"U","REV_AT_EPOCH":"8468","INCLINATION":"53.0534","SITE":"AFETR","TIME_SYSTEM":"UTC","LAUNCH_DATE":"2020-03-18","MEAN_MOTION_DOT":"0.00005514","CENTER_NAME":"EARTH","ELEMENT_SET_NO":"999","GP_ID":"185504453","MEAN_MOTION_DDOT":"0.0000000000000","ARG_OF_PERICENTER":"59.8734","MEAN_MOTION":"15.06442062","SEMIMAJOR_AXIS":"6925.220","NORAD_CAT_ID":"45393","BSTAR":"0.00038832000000","MEAN_ELEMENT_THEORY":"SGP4","REF_FRAME":"TEME","TLE_LINE2":"2 45393  53.0534 246.2745 0001422  59.8734 300.2395 15.06442062 84689","RCS_SIZE":"LARGE","DECAY_DATE":null,"OBJECT_TYPE":"PAYLOAD","OBJECT_ID":"2020-019AK","TLE_LINE1":"1 45393U 20019AK  21268.63435356  .00005514  00000-0  38832-3 0  9992","ECCENTRICITY":"0.00014220","PERIAPSIS":"546.100","OBJECT_NAME":"STARLINK-1291","EPHEMERIS_TYPE":"0","COUNTRY_CODE":"US","PERIOD":"95.589","MEAN_ANOMALY":"300.2395","RA_OF_ASC_NODE":"246.2745"},{"RA_OF_ASC_NODE":"246.1399","MEAN_ANOMALY":"292.9890","PERIOD":"95.592","EPHEMERIS_TYPE":"0","COUNTRY_CODE":"US","TLE_LINE1":"1 45394U 20019AL  21268.66388967  .00000487  00000-0  51562-4 0  9991","OBJECT_NAME":"STARLINK-1292","PERIAPSIS":"546.245","ECCENTRICITY":"0.00013810","OBJECT_ID":"2020-019AL","OBJECT_TYPE":"PAYLOAD","DECAY_DATE":null,"RCS_SIZE":"LARGE","TLE_LINE2":"2 45394  53.0540 246.1399 0001381  67.1244 292.9890 15.06403913 84660","BSTAR":"0.00005156200000","SEMIMAJOR_AXIS":"6925.337","NORAD_CAT_ID":"45394","MEAN_ELEMENT_THEORY":"SGP4","REF_FRAME":"TEME","MEAN_MOTION":"15.06403913","ARG_OF_PERICENTER":"67.1244","MEAN_MOTION_DDOT":"0.0000000000000","GP_ID":"185504703","CENTER_NAME":"EARTH","ELEMENT_SET_NO":"999","MEAN_MOTION_DOT":"0.00000487","TIME_SYSTEM":"UTC","LAUNCH_DATE":"2020-03-18","INCLINATION":"53.0540","SITE":"AFETR","REV_AT_EPOCH":"8466","CLASSIFICATION_TYPE":"U","APOAPSIS":"548.158","FILE":"3128274","EPOCH":"2021-09-25T15:56:00.067488"},{"PERIOD":"95.592","RA_OF_ASC_NODE":"248.0957","MEAN_ANOMALY":"303.0922","OBJECT_TYPE":"PAYLOAD","OBJECT_ID":"2020-019AM","EPHEMERIS_TYPE":"0","COUNTRY_CODE":"US","TLE_LINE1":"1 45395U 20019AM  21268.22894730  .00000164  00000-0  29914-4 0  9992","PERIAPSIS":"546.598","OBJECT_NAME":"STARLINK-1297","ECCENTRICITY":"0.00008850","TLE_LINE2":"2 45395  53.0538 248.0957 0000885  57.0152 303.0922 15.06400954 84047","DECAY_DATE":null,"RCS_SIZE":"LARGE","MEAN_MOTION":"15.06400954","ARG_OF_PERICENTER":"57.0152","SEMIMAJOR_AXIS":"6925.346","NORAD_CAT_ID":"45395","BSTAR":"0.00002991400000","MEAN_ELEMENT_THEORY":"SGP4","REF_FRAME":"TEME","MEAN_MOTION_DDOT":"0.0000000000000","GP_ID":"185505455","MEAN_MOTION_DOT":"0.00000164","CENTER_NAME":"EARTH","ELEMENT_SET_NO":"999","INCLINATION":"53.0538","SITE":"AFETR","TIME_SYSTEM":"UTC","LAUNCH_DATE":"2020-03-18","CLASSIFICATION_TYPE":"U","APOAPSIS":"547.824","FILE":"3128274","EPOCH":"2021-09-25T05:29:41.046720","REV_AT_EPOCH":"8404"},{"GP_ID":"185505705","MEAN_MOTION_DDOT":"0.0000000000000","ELEMENT_SET_NO":"999","CENTER_NAME":"EARTH","MEAN_MOTION_DOT":"0.00000019","LAUNCH_DATE":"2020-03-18","TIME_SYSTEM":"UTC","INCLINATION":"53.0536","SITE":"AFETR","REV_AT_EPOCH":"8464","FILE":"3128274","EPOCH":"2021-09-25T16:11:55.110624","APOAPSIS":"548.018","CLASSIFICATION_TYPE":"U","MEAN_ANOMALY":"300.1462","RA_OF_ASC_NODE":"246.0902","PERIOD":"95.592","TLE_LINE1":"1 45396U 20019AN  21268.67494341  .00000019  00000-0  20180-4 0  9991","PERIAPSIS":"546.386","OBJECT_NAME":"STARLINK-1303","ECCENTRICITY":"0.00011780","COUNTRY_CODE":"US","EPHEMERIS_TYPE":"0","OBJECT_ID":"2020-019AN","OBJECT_TYPE":"PAYLOAD","DECAY_DATE":null,"RCS_SIZE":"LARGE","TLE_LINE2":"2 45396  53.0536 246.0902 0001178  59.9644 300.1462 15.06403734 84649","MEAN_ELEMENT_THEORY":"SGP4","REF_FRAME":"TEME","SEMIMAJOR_AXIS":"6925.337","BSTAR":"0.00002018000000","NORAD_CAT_ID":"45396","ARG_OF_PERICENTER":"59.9644","MEAN_MOTION":"15.06403734"},{"ELEMENT_SET_NO":"999","CENTER_NAME":"EARTH","MEAN_MOTION_DOT":"0.00001742","MEAN_MOTION_DDOT":"0.0000000000000","GP_ID":"185503953","REV_AT_EPOCH":"8468","CLASSIFICATION_TYPE":"U","FILE":"3128274","EPOCH":"2021-09-25T05:19:03.594432","APOAPSIS":"547.989","LAUNCH_DATE":"2020-03-18","TIME_SYSTEM":"UTC","SITE":"AFETR","INCLINATION":"53.0529","COUNTRY_CODE":"US","EPHEMERIS_TYPE":"0","OBJECT_NAME":"STARLINK-1307","TLE_LINE1":"1 45397U 20019AP  21268.22156938  .00001742  00000-0  13576-3 0  9994","PERIAPSIS":"546.411","ECCENTRICITY":"0.00011390","OBJECT_TYPE":"PAYLOAD","OBJECT_ID":"2020-019AP","RA_OF_ASC_NODE":"248.1269","MEAN_ANOMALY":"304.3903","PERIOD":"95.592","REF_FRAME":"TEME","MEAN_ELEMENT_THEORY":"SGP4","SEMIMAJOR_AXIS":"6925.335","NORAD_CAT_ID":"45397","BSTAR":"0.00013576000000","MEAN_MOTION":"15.06404455","ARG_OF_PERICENTER":"55.7194","RCS_SIZE":"LARGE","DECAY_DATE":null,"TLE_LINE2":"2 45397  53.0529 248.1269 0001139  55.7194 304.3903 15.06404455 84683"},{"OBJECT_ID":"2020-019AQ","OBJECT_TYPE":"PAYLOAD","TLE_LINE1":"1 45398U 20019AQ  21268.67862634  .00001989  00000-0  15235-3 0  9998","ECCENTRICITY":"0.00013150","PERIAPSIS":"546.270","OBJECT_NAME":"STARLINK-1312","EPHEMERIS_TYPE":"0","COUNTRY_CODE":"US","PERIOD":"95.591","MEAN_ANOMALY":"301.2627","RA_OF_ASC_NODE":"246.0721","ARG_OF_PERICENTER":"58.8491","MEAN_MOTION":"15.06410772","NORAD_CAT_ID":"45398","SEMIMAJOR_AXIS":"6925.316","BSTAR":"0.00015235000000","REF_FRAME":"TEME","MEAN_ELEMENT_THEORY":"SGP4","TLE_LINE2":"2 45398  53.0529 246.0721 0001315  58.8491 301.2627 15.06410772 84682","RCS_SIZE":"LARGE","DECAY_DATE":null,"MEAN_MOTION_DOT":"0.00001989","CENTER_NAME":"EARTH","ELEMENT_SET_NO":"999","GP_ID":"185504203","MEAN_MOTION_DDOT":"0.0000000000000","APOAPSIS":"548.091","FILE":"3128274","EPOCH":"2021-09-25T16:17:13.315776","CLASSIFICATION_TYPE":"U","REV_AT_EPOCH":"8468","SITE":"AFETR","INCLINATION":"53.0529","LAUNCH_DATE":"2020-03-18","TIME_SYSTEM":"UTC"},{"REV_AT_EPOCH":"8487","EPOCH":"2021-09-25T15:41:23.409024","FILE":"3128274","APOAPSIS":"548.323","CLASSIFICATION_TYPE":"U","TIME_SYSTEM":"UTC","LAUNCH_DATE":"2020-03-18","SITE":"AFETR","INCLINATION":"53.0533","ELEMENT_SET_NO":"999","CENTER_NAME":"EARTH","MEAN_MOTION_DOT":"0.00002805","GP_ID":"185504955","MEAN_MOTION_DDOT":"0.0000000000000","MEAN_ELEMENT_THEORY":"SGP4","REF_FRAME":"TEME","BSTAR":"0.00020712000000","SEMIMAJOR_AXIS":"6925.325","NORAD_CAT_ID":"45399","ARG_OF_PERICENTER":"59.8510","MEAN_MOTION":"15.06407629","RCS_SIZE":"LARGE","DECAY_DATE":null,"TLE_LINE2":"2 45399  53.0533 236.1852 0001636  59.8510 300.2641 15.06407629 84875","OBJECT_NAME":"STARLINK-1255","TLE_LINE1":"1 45399U 20019AR  21268.65374316  .00002805  00000-0  20712-3 0  9996","PERIAPSIS":"546.057","ECCENTRICITY":"0.00016360","COUNTRY_CODE":"US","EPHEMERIS_TYPE":"0","OBJECT_TYPE":"PAYLOAD","OBJECT_ID":"2020-019AR","MEAN_ANOMALY":"300.2641","RA_OF_ASC_NODE":"236.1852","PERIOD":"95.592"},{"CENTER_NAME":"EARTH","ELEMENT_SET_NO":"999","MEAN_MOTION_DOT":"-0.00000121","MEAN_MOTION_DDOT":"0.0000000000000","GP_ID":"185505205","REV_AT_EPOCH":"8479","CLASSIFICATION_TYPE":"U","APOAPSIS":"547.982","FILE":"3128274","EPOCH":"2021-09-25T14:27:05.156064","LAUNCH_DATE":"2020-03-18","TIME_SYSTEM":"UTC","INCLINATION":"53.0544","SITE":"AFETR","EPHEMERIS_TYPE":"0","COUNTRY_CODE":"US","TLE_LINE1":"1 45400U 20019AS  21268.60214301 -.00000121  00000-0  10778-4 0  9993","OBJECT_NAME":"STARLINK-1213","PERIAPSIS":"546.430","ECCENTRICITY":"0.00011200","OBJECT_ID":"2020-019AS","OBJECT_TYPE":"PAYLOAD","RA_OF_ASC_NODE":"236.4185","MEAN_ANOMALY":"306.4011","PERIOD":"95.592","SEMIMAJOR_AXIS":"6925.341","NORAD_CAT_ID":"45400","BSTAR":"0.00001077800000","MEAN_ELEMENT_THEORY":"SGP4","REF_FRAME":"TEME","MEAN_MOTION":"15.06402444","ARG_OF_PERICENTER":"53.7081","DECAY_DATE":null,"RCS_SIZE":"LARGE","TLE_LINE2":"2 45400  53.0544 236.4185 0001120  53.7081 306.4011 15.06402444 84796"},{"APOAPSIS":"548.080","EPOCH":"2021-09-25T04:48:33.008256","FILE":"3128274","CLASSIFICATION_TYPE":"U","REV_AT_EPOCH":"8480","SITE":"AFETR","INCLINATION":"53.0538","LAUNCH_DATE":"2020-03-18","TIME_SYSTEM":"UTC","MEAN_MOTION_DOT":"0.00000036","CENTER_NAME":"EARTH","ELEMENT_SET_NO":"999","GP_ID":"185504454","MEAN_MOTION_DDOT":"0.0000000000000","ARG_OF_PERICENTER":"62.1454","MEAN_MOTION":"15.06398914","BSTAR":"0.00002133400000","SEMIMAJOR_AXIS":"6925.352","NORAD_CAT_ID":"45401","MEAN_ELEMENT_THEORY":"SGP4","REF_FRAME":"TEME","TLE_LINE2":"2 45401  53.0538 238.2186 0001246  62.1454 297.9661 15.06398914 84801","DECAY_DATE":null,"RCS_SIZE":"LARGE","OBJECT_TYPE":"PAYLOAD","OBJECT_ID":"2020-019AT","TLE_LINE1":"1 45401U 20019AT  21268.20038204  .00000036  00000-0  21334-4 0  9990","PERIAPSIS":"546.354","ECCENTRICITY":"0.00012460","OBJECT_NAME":"STARLINK-1256","EPHEMERIS_TYPE":"0","COUNTRY_CODE":"US","PERIOD":"95.592","MEAN_ANOMALY":"297.9661","RA_OF_ASC_NODE":"238.2186"}];
